{
    "links": {
        "self": "http://www.neowsapp.com/rest/v1/neo/3596213?api_key=iIulBulltgU6a56xZRHN4H3l9WmuAYTsLGpBGhQ2"
    },
    "id": "3596213",
    "neo_reference_id": "3596213",
    "name": "(2012 BF27)",
    "designation": "2012 BF27",
    "nasa_jpl_url": "http://ssd.jpl.nasa.gov/sbdb.cgi?sstr=3596213",
    "absolute_magnitude_h": 26.1,
    "estimated_diameter": {
        "kilometers": {
            "estimated_diameter_min": 0.0160160338,
            "estimated_diameter_max": 0.0358129403
        },
        "meters": {
            "estimated_diameter_min": 16.0160337979,
            "estimated_diameter_max": 35.8129403019
        },
        "miles": {
            "estimated_diameter_min": 0.0099518989,
            "estimated_diameter_max": 0.0222531225
        },
        "feet": {
            "estimated_diameter_min": 52.5460443254,
            "estimated_diameter_max": 117.4965270602
        }
    },
    "is_potentially_hazardous_asteroid": false,
    "close_approach_data": [
        {
            "close_approach_date": "1935-10-03",
            "close_approach_date_full": "1935-Oct-03 02:13",
            "epoch_date_close_approach": -1080769620000,
            "relative_velocity": {
                "kilometers_per_second": "3.0953081445",
                "kilometers_per_hour": "11143.1093201213",
                "miles_per_hour": "6923.8947883831"
            },
            "miss_distance": {
                "astronomical": "1.9757397653",
                "lunar": "768.5627687017",
                "kilometers": "295566460.563179911",
                "miles": "183656482.3297123318"
            },
            "orbiting_body": "Juptr"
        },
        {
            "close_approach_date": "2012-01-20",
            "close_approach_date_full": "2012-Jan-20 17:37",
            "epoch_date_close_approach": 1327081020000,
            "relative_velocity": {
                "kilometers_per_second": "14.6623759",
                "kilometers_per_hour": "52784.5532401386",
                "miles_per_hour": "32798.2686507961"
            },
            "miss_distance": {
                "astronomical": "0.0029055157",
                "lunar": "1.1302456073",
                "kilometers": "434658.959971559",
                "miles": "270084.5537391542"
            },
            "orbiting_body": "Moon"
        },
        {
            "close_approach_date": "2012-01-20",
            "close_approach_date_full": "2012-Jan-20 21:58",
            "epoch_date_close_approach": 1327096680000,
            "relative_velocity": {
                "kilometers_per_second": "13.8641887755",
                "kilometers_per_hour": "49911.079591975",
                "miles_per_hour": "31012.8038720247"
            },
            "miss_distance": {
                "astronomical": "0.0048943512",
                "lunar": "1.9039026168",
                "kilometers": "732184.514551944",
                "miles": "454958.3606430672"
            },
            "orbiting_body": "Earth"
        }
    ],
    "orbital_data": {
        "orbit_id": "6",
        "orbit_determination_date": "2017-04-06 08:51:16",
        "first_observation_date": "2012-01-23",
        "last_observation_date": "2012-01-29",
        "data_arc_in_days": 6,
        "observations_used": 34,
        "orbit_uncertainty": "8",
        "minimum_orbit_intersection": ".000751157",
        "jupiter_tisserand_invariant": "3.410",
        "epoch_osculation": "2455952.5",
        "eccentricity": ".612776596947967",
        "semi_major_axis": "2.168170464818258",
        "inclination": "8.062896025478267",
        "ascending_node_longitude": "120.3274955760738",
        "orbital_period": "1166.107431310187",
        "perihelion_distance": ".8395663457838339",
        "perihelion_argument": "308.1635870219558",
        "aphelion_distance": "3.496774583852682",
        "perihelion_time": "2455911.885357513666",
        "mean_anomaly": "12.53852852875864",
        "mean_motion": ".3087194115515752",
        "equinox": "J2000",
        "orbit_class": {
            "orbit_class_type": "APO",
            "orbit_class_description": "Near-Earth asteroid orbits which cross the Earth’s orbit similar to that of 1862 Apollo",
            "orbit_class_range": "a (semi-major axis) > 1.0 AU; q (perihelion) < 1.017 AU"
        }
    },
    "is_sentry_object": false
}